0 COSMOS 2251 DEB
1 35463U 93036ALH 13281.78716083  .00007820  00000-0  88786-3 0  3112
2 35463 074.0340 315.5944 0104691 119.1002 242.0707 14.82500617234686
0 COSMOS 2251 DEB
1 35463U 93036ALH 13285.43108935  .00009496  00000-0  10760-2 0  3127
2 35463 074.0340 308.3863 0104163 110.7986 250.4388 14.82574831235226
0 COSMOS 2251 DEB
1 35463U 93036ALH 13286.44326238  .00009657  00000-0  10934-2 0  3130
2 35463 074.0337 306.3833 0104313 108.5208 252.7338 14.82590514235378
0 COSMOS 2251 DEB
1 35463U 93036ALH 13287.72533173  .00014045  00000-0  15863-2 0  3144
2 35463 074.0334 303.8465 0104278 105.5909 255.6808 14.82617718235564
0 COSMOS 2251 DEB
1 35463U 93036ALH 13289.41221798  .00015562  00000-0  17560-2 0  3151
2 35463 074.0330 300.5095 0103914 101.5920 259.6945 14.82661014235810
0 COSMOS 2251 DEB
1 35463U 93036ALH 13290.35685402  .00016553  00000-0  18655-2 0  3160
2 35463 074.0326 298.6391 0104159 099.6538 261.6425 14.82681621235952
0 COSMOS 2251 DEB
1 35463U 93036ALH 13292.38102498  .00013908  00000-0  15670-2 0  3170
2 35463 074.0327 294.6327 0104093 095.0699 266.2370 14.82730073236253
0 COSMOS 2251 DEB
1 35463U 93036ALH 13293.39308608  .00015523  00000-0  17472-2 0  3181
2 35463 074.0329 292.6295 0104048 092.7387 268.5705 14.82752730236403
0 COSMOS 2251 DEB
1 35463U 93036ALH 13294.67500553  .00018894  00000-0  21229-2 0  3196
2 35463 074.0333 290.0924 0104052 089.8345 271.4755 14.82786473236594
0 COSMOS 2251 DEB
1 35463U 93036ALH 13295.68702605  .00019508  00000-0  21902-2 0  3203
2 35463 074.0334 288.0893 0104037 087.6108 273.6976 14.82812432236744
